{
  "type": "FeatureCollection",
  "features": [
    {
      "type": "Feature",
      "properties": {
        "norad_id": 30701,
        "name": "FENGYUN 1C DEB",
        "group": "fengyun-1c-debris",
        "lat": 45.59361780305529,
        "lon": 20.0443776059417,
        "alt_km": 826.5089840643814,
        "timestamp": "2025-12-13T18:50:04.709137+00:00",
        "meta_object_name": "FENGYUN 1C DEB",
        "meta_object_id": "1999-025ARK",
        "meta_epoch": "2025-12-13T01:46:25.393728",
        "meta_mean_motion": 14.13934582,
        "meta_eccentricity": 0.00357375,
        "meta_inclination": 98.7184,
        "meta_ra_of_asc_node": 28.3642,
        "meta_arg_of_pericenter": 101.8301,
        "meta_mean_anomaly": 288.4289,
        "meta_ephemeris_type": 0,
        "meta_classification_type": "U",
        "meta_norad_cat_id": 30701,
        "meta_element_set_no": 999,
        "meta_rev_at_epoch": 97124,
        "meta_bstar": 1.9830973e-05,
        "meta_mean_motion_dot": -5e-08,
        "meta_mean_motion_ddot": 0,
        "tle_line1": "1 30701U 99025ARK 25347.07390502 -.00000005  00000+0  19831-4 0  9994",
        "tle_line2": "2 30701  98.7184  28.3642 0035737 101.8301 288.4289 14.13934582971248"
      },
      "geometry": {
        "type": "Point",
        "coordinates": [
          20.0443776059417,
          45.59361780305529
        ]
      }
    },
    {
      "type": "Feature",
      "properties": {
        "norad_id": 30702,
        "name": "FENGYUN 1C DEB",
        "group": "fengyun-1c-debris",
        "lat": -47.86863152966961,
        "lon": 17.413329381565283,
        "alt_km": 839.5466552013377,
        "timestamp": "2025-12-13T18:50:04.709148+00:00",
        "meta_object_name": "FENGYUN 1C DEB",
        "meta_object_id": "1999-025ARL",
        "meta_epoch": "2025-12-13T07:09:33.249600",
        "meta_mean_motion": 14.03594688,
        "meta_eccentricity": 0.00685718,
        "meta_inclination": 98.7697,
        "meta_ra_of_asc_node": 7.1186,
        "meta_arg_of_pericenter": 300.1696,
        "meta_mean_anomaly": 74.3475,
        "meta_ephemeris_type": 0,
        "meta_classification_type": "U",
        "meta_norad_cat_id": 30702,
        "meta_element_set_no": 999,
        "meta_rev_at_epoch": 96170,
        "meta_bstar": 0.001145879,
        "meta_mean_motion_dot": 1.793e-05,
        "meta_mean_motion_ddot": 0,
        "tle_line1": "1 30702U 99025ARL 25347.29830150  .00001793  00000+0  11459-2 0  9997",
        "tle_line2": "2 30702  98.7697   7.1186 0068571 300.1696  74.3475 14.03594688961706"
      },
      "geometry": {
        "type": "Point",
        "coordinates": [
          17.413329381565283,
          -47.86863152966961
        ]
      }
    },
    {
      "type": "Feature",
      "properties": {
        "norad_id": 30703,
        "name": "FENGYUN 1C DEB",
        "group": "fengyun-1c-debris",
        "lat": 66.2494950393269,
        "lon": 174.3141240944149,
        "alt_km": 905.784411669214,
        "timestamp": "2025-12-13T18:50:04.709158+00:00",
        "meta_object_name": "FENGYUN 1C DEB",
        "meta_object_id": "1999-025ARM",
        "meta_epoch": "2025-12-12T22:15:35.636256",
        "meta_mean_motion": 14.1932766,
        "meta_eccentricity": 0.01176587,
        "meta_inclination": 99.1423,
        "meta_ra_of_asc_node": 331.9625,
        "meta_arg_of_pericenter": 291.5555,
        "meta_mean_anomaly": 122.5647,
        "meta_ephemeris_type": 0,
        "meta_classification_type": "U",
        "meta_norad_cat_id": 30703,
        "meta_element_set_no": 999,
        "meta_rev_at_epoch": 96543,
        "meta_bstar": 0.0018014575,
        "meta_mean_motion_dot": 4.007e-05,
        "meta_mean_motion_ddot": 0,
        "tle_line1": "1 30703U 99025ARM 25346.92749579  .00004007  00000+0  18015-2 0  9997",
        "tle_line2": "2 30703  99.1423 331.9625 0117658 291.5555 122.5647 14.19327660965435"
      },
      "geometry": {
        "type": "Point",
        "coordinates": [
          174.3141240944149,
          66.2494950393269
        ]
      }
    },
    {
      "type": "Feature",
      "properties": {
        "norad_id": 30704,
        "name": "FENGYUN 1C DEB",
        "group": "fengyun-1c-debris",
        "lat": -11.093328750158761,
        "lon": -11.74785076699545,
        "alt_km": 908.9074864887598,
        "timestamp": "2025-12-13T18:50:04.709169+00:00",
        "meta_object_name": "FENGYUN 1C DEB",
        "meta_object_id": "1999-025ARN",
        "meta_epoch": "2025-12-12T22:28:32.169216",
        "meta_mean_motion": 14.02048149,
        "meta_eccentricity": 0.00817069,
        "meta_inclination": 98.8725,
        "meta_ra_of_asc_node": 345.6716,
        "meta_arg_of_pericenter": 99.33,
        "meta_mean_anomaly": 291.1541,
        "meta_ephemeris_type": 0,
        "meta_classification_type": "U",
        "meta_norad_cat_id": 30704,
        "meta_element_set_no": 999,
        "meta_rev_at_epoch": 96114,
        "meta_bstar": 0.00059772804,
        "meta_mean_motion_dot": 8.97e-06,
        "meta_mean_motion_ddot": 0,
        "tle_line1": "1 30704U 99025ARN 25346.93648344  .00000897  00000+0  59773-3 0  9997",
        "tle_line2": "2 30704  98.8725 345.6716 0081706  99.3300 291.1541 14.02048149961140"
      },
      "geometry": {
        "type": "Point",
        "coordinates": [
          -11.74785076699545,
          -11.093328750158761
        ]
      }
    },
    {
      "type": "Feature",
      "properties": {
        "norad_id": 30705,
        "name": "FENGYUN 1C DEB",
        "group": "fengyun-1c-debris",
        "lat": -29.984641857908347,
        "lon": 99.41748801483298,
        "alt_km": 868.346520662647,
        "timestamp": "2025-12-13T18:50:04.709179+00:00",
        "meta_object_name": "FENGYUN 1C DEB",
        "meta_object_id": "1999-025ARP",
        "meta_epoch": "2025-12-12T06:36:51.432192",
        "meta_mean_motion": 13.8131694,
        "meta_eccentricity": 0.01998378,
        "meta_inclination": 102.1799,
        "meta_ra_of_asc_node": 90.3171,
        "meta_arg_of_pericenter": 283.2492,
        "meta_mean_anomaly": 103.156,
        "meta_ephemeris_type": 0,
        "meta_classification_type": "U",
        "meta_norad_cat_id": 30705,
        "meta_element_set_no": 999,
        "meta_rev_at_epoch": 94003,
        "meta_bstar": 0.0034153268,
        "meta_mean_motion_dot": 4.155e-05,
        "meta_mean_motion_ddot": 0,
        "tle_line1": "1 30705U 99025ARP 25346.27559528  .00004155  00000+0  34153-2 0  9995",
        "tle_line2": "2 30705 102.1799  90.3171 0199837 283.2492 103.1560 13.81316940940032"
      },
      "geometry": {
        "type": "Point",
        "coordinates": [
          99.41748801483298,
          -29.984641857908347
        ]
      }
    },
    {
      "type": "Feature",
      "properties": {
        "norad_id": 30706,
        "name": "FENGYUN 1C DEB",
        "group": "fengyun-1c-debris",
        "lat": 72.3380745349286,
        "lon": -147.66461775854575,
        "alt_km": 784.4917057703915,
        "timestamp": "2025-12-13T18:50:04.709190+00:00",
        "meta_object_name": "FENGYUN 1C DEB",
        "meta_object_id": "1999-025ARQ",
        "meta_epoch": "2025-12-13T05:01:03.641952",
        "meta_mean_motion": 14.26428217,
        "meta_eccentricity": 0.00265765,
        "meta_inclination": 99.0653,
        "meta_ra_of_asc_node": 241.8334,
        "meta_arg_of_pericenter": 126.8811,
        "meta_mean_anomaly": 233.4809,
        "meta_ephemeris_type": 0,
        "meta_classification_type": "U",
        "meta_norad_cat_id": 30706,
        "meta_element_set_no": 999,
        "meta_rev_at_epoch": 97634,
        "meta_bstar": 0.0013005121,
        "meta_mean_motion_dot": 3.095e-05,
        "meta_mean_motion_ddot": 0,
        "tle_line1": "1 30706U 99025ARQ 25347.20906993  .00003095  00000+0  13005-2 0  9997",
        "tle_line2": "2 30706  99.0653 241.8334 0026576 126.8811 233.4809 14.26428217976343"
      },
      "geometry": {
        "type": "Point",
        "coordinates": [
          -147.66461775854575,
          72.3380745349286
        ]
      }
    },
    {
      "type": "Feature",
      "properties": {
        "norad_id": 30707,
        "name": "FENGYUN 1C DEB",
        "group": "fengyun-1c-debris",
        "lat": -52.163628493992704,
        "lon": 54.57133647598084,
        "alt_km": 819.6618144833956,
        "timestamp": "2025-12-13T18:50:04.709200+00:00",
        "meta_object_name": "FENGYUN 1C DEB",
        "meta_object_id": "1999-025ARR",
        "meta_epoch": "2025-12-13T02:23:36.499200",
        "meta_mean_motion": 14.26690459,
        "meta_eccentricity": 0.00277645,
        "meta_inclination": 99.4134,
        "meta_ra_of_asc_node": 41.5023,
        "meta_arg_of_pericenter": 68.9831,
        "meta_mean_anomaly": 321.6593,
        "meta_ephemeris_type": 0,
        "meta_classification_type": "U",
        "meta_norad_cat_id": 30707,
        "meta_element_set_no": 999,
        "meta_rev_at_epoch": 96808,
        "meta_bstar": 0.0021801865,
        "meta_mean_motion_dot": 5.248e-05,
        "meta_mean_motion_ddot": 0,
        "tle_line1": "1 30707U 99025ARR 25347.09972800  .00005248  00000+0  21802-2 0  9991",
        "tle_line2": "2 30707  99.4134  41.5023 0027764  68.9831 321.6593 14.26690459968081"
      },
      "geometry": {
        "type": "Point",
        "coordinates": [
          54.57133647598084,
          -52.163628493992704
        ]
      }
    }
  ]
}